[
    {
        "Altitude(m)": 702713.7870175592,
        "Argument of Periapsis(deg)": 0.004556048474650827,
        "Eccentricity": 0.0,
        "Inclination(deg)": 45.0,
        "Latitude(deg)": 14.693299791522783,
        "Longitude(deg)": 94.82693559027399,
        "Mean Anomaly(deg)": 20.976886658992324,
        "RAAN(deg)": 179.99569922341672,
        "Satellite Name": "Constellation 1 793",
        "Satellite Number": 793,
        "Semi-Major Axis(m)": 7083131.272910544,
        "Time(s)": 76
    },
    {
        "Altitude(m)": 702715.0492530243,
        "Argument of Periapsis(deg)": 0.004615996480896233,
        "Eccentricity": 0.0,
        "Inclination(deg)": 45.0,
        "Latitude(deg)": 14.735004157974906,
        "Longitude(deg)": 94.86863634501586,
        "Mean Anomaly(deg)": 21.03758779924224,
        "RAAN(deg)": 179.99564263425114,
        "Satellite Name": "Constellation 1 793",
        "Satellite Number": 793,
        "Semi-Major Axis(m)": 7083131.272910544,
        "Time(s)": 77
    },
    {
        "Altitude(m)": 702716.328975406,
        "Argument of Periapsis(deg)": 0.004675944487141638,
        "Eccentricity": 0.0,
        "Inclination(deg)": 45.0,
        "Latitude(deg)": 14.776699337337128,
        "Longitude(deg)": 94.91035455085846,
        "Mean Anomaly(deg)": 21.09828893949212,
        "RAAN(deg)": 179.9955860450856,
        "Satellite Name": "Constellation 1 793",
        "Satellite Number": 793,
        "Semi-Major Axis(m)": 7083131.272910544,
        "Time(s)": 78
    },
    {
        "Altitude(m)": 702717.6261611659,
        "Argument of Periapsis(deg)": 0.004735892493387044,
        "Eccentricity": 0.0,
        "Inclination(deg)": 45.0,
        "Latitude(deg)": 14.818385298925875,
        "Longitude(deg)": 94.95209026209771,
        "Mean Anomaly(deg)": 21.158990079742036,
        "RAAN(deg)": 179.99552945592,
        "Satellite Name": "Constellation 1 793",
        "Satellite Number": 793,
        "Semi-Major Axis(m)": 7083131.272910544,
        "Time(s)": 79
    },
    {
        "Altitude(m)": 702718.9407866753,
        "Argument of Periapsis(deg)": 0.004795840499632449,
        "Eccentricity": 0.0,
        "Inclination(deg)": 45.0,
        "Latitude(deg)": 14.86006201202337,
        "Longitude(deg)": 94.99384353305992,
        "Mean Anomaly(deg)": 21.219691219991923,
        "RAAN(deg)": 179.99547286675443,
        "Satellite Name": "Constellation 1 793",
        "Satellite Number": 793,
        "Semi-Major Axis(m)": 7083131.272910544,
        "Time(s)": 80
    },
    {
        "Altitude(m)": 702720.2728282417,
        "Argument of Periapsis(deg)": 0.004855788505877855,
        "Eccentricity": 0.0,
        "Inclination(deg)": 45.0,
        "Latitude(deg)": 14.901729445877576,
        "Longitude(deg)": 95.03561441810167,
        "Mean Anomaly(deg)": 21.280392360241834,
        "RAAN(deg)": 179.99541627758887,
        "Satellite Name": "Constellation 1 793",
        "Satellite Number": 793,
        "Semi-Major Axis(m)": 7083131.272910544,
        "Time(s)": 81
    },
    {
        "Altitude(m)": 702721.6222621015,
        "Argument of Periapsis(deg)": 0.00491573651212326,
        "Eccentricity": 0.0,
        "Inclination(deg)": 45.0,
        "Latitude(deg)": 14.943387569702011,
        "Longitude(deg)": 95.0774028035128,
        "Mean Anomaly(deg)": 21.341093500491745,
        "RAAN(deg)": 179.9953596884233,
        "Satellite Name": "Constellation 1 793",
        "Satellite Number": 793,
        "Semi-Major Axis(m)": 7083131.272910544,
        "Time(s)": 82
    },
    {
        "Altitude(m)": 702722.9890644259,
        "Argument of Periapsis(deg)": 0.004975684518368666,
        "Eccentricity": 0.0,
        "Inclination(deg)": 45.0,
        "Latitude(deg)": 14.985036352675651,
        "Longitude(deg)": 95.11920907990488,
        "Mean Anomaly(deg)": 21.40179464074163,
        "RAAN(deg)": 179.99530309925774,
        "Satellite Name": "Constellation 1 793",
        "Satellite Number": 793,
        "Semi-Major Axis(m)": 7083131.272910544,
        "Time(s)": 83
    },
    {
        "Altitude(m)": 702724.373211304,
        "Argument of Periapsis(deg)": 0.005035632524614072,
        "Eccentricity": 0.0,
        "Inclination(deg)": 45.0,
        "Latitude(deg)": 15.026675763942936,
        "Longitude(deg)": 95.16103313362858,
        "Mean Anomaly(deg)": 21.462495780991546,
        "RAAN(deg)": 179.99524651009216,
        "Satellite Name": "Constellation 1 793",
        "Satellite Number": 793,
        "Semi-Major Axis(m)": 7083131.272910544,
        "Time(s)": 84
    },
    {
        "Altitude(m)": 702725.7746787592,
        "Argument of Periapsis(deg)": 0.0050955805308594785,
        "Eccentricity": 0.0,
        "Inclination(deg)": 45.0,
        "Latitude(deg)": 15.068305772613474,
        "Longitude(deg)": 95.20287501916212,
        "Mean Anomaly(deg)": 21.52319692124143,
        "RAAN(deg)": 179.9951899209266,
        "Satellite Name": "Constellation 1 793",
        "Satellite Number": 793,
        "Semi-Major Axis(m)": 7083131.272910544,
        "Time(s)": 85
    },
    {
        "Altitude(m)": 702727.1934427413,
        "Argument of Periapsis(deg)": 0.005155528537104883,
        "Eccentricity": 0.0,
        "Inclination(deg)": 45.0,
        "Latitude(deg)": 15.109926347762087,
        "Longitude(deg)": 95.24473479101415,
        "Mean Anomaly(deg)": 21.583898061491343,
        "RAAN(deg)": 179.99513333176105,
        "Satellite Name": "Constellation 1 793",
        "Satellite Number": 793,
        "Semi-Major Axis(m)": 7083131.272910544,
        "Time(s)": 86
    },
    {
        "Altitude(m)": 702728.6294791336,
        "Argument of Periapsis(deg)": 0.0052154765433502885,
        "Eccentricity": 0.0,
        "Inclination(deg)": 45.0,
        "Latitude(deg)": 15.151537458428571,
        "Longitude(deg)": 95.28661250372386,
        "Mean Anomaly(deg)": 21.6445992017412,
        "RAAN(deg)": 179.99507674259544,
        "Satellite Name": "Constellation 1 793",
        "Satellite Number": 793,
        "Semi-Major Axis(m)": 7083131.272910544,
        "Time(s)": 87
    },
    {
        "Altitude(m)": 702730.0827637471,
        "Argument of Periapsis(deg)": 0.005275424549595694,
        "Eccentricity": 0.0,
        "Inclination(deg)": 45.0,
        "Latitude(deg)": 15.193139073617738,
        "Longitude(deg)": 95.32850821186102,
        "Mean Anomaly(deg)": 21.705300341991116,
        "RAAN(deg)": 179.9950201534299,
        "Satellite Name": "Constellation 1 793",
        "Satellite Number": 793,
        "Semi-Major Axis(m)": 7083131.272910544,
        "Time(s)": 88
    },
    {
        "Altitude(m)": 702731.5532723174,
        "Argument of Periapsis(deg)": 0.0053353725558411,
        "Eccentricity": 0.0,
        "Inclination(deg)": 45.0,
        "Latitude(deg)": 15.234731162299147,
        "Longitude(deg)": 95.3704218019287,
        "Mean Anomaly(deg)": 21.766001482241002,
        "RAAN(deg)": 179.9949635642643,
        "Satellite Name": "Constellation 1 793",
        "Satellite Number": 793,
        "Semi-Major Axis(m)": 7083131.272910544,
        "Time(s)": 89
    },
    {
        "Altitude(m)": 702733.0409805232,
        "Argument of Periapsis(deg)": 0.005395320562086505,
        "Eccentricity": 0.0,
        "Inclination(deg)": 45.0,
        "Latitude(deg)": 15.276313693407097,
        "Longitude(deg)": 95.41235366475209,
        "Mean Anomaly(deg)": 21.826702622490917,
        "RAAN(deg)": 179.99490697509876,
        "Satellite Name": "Constellation 1 793",
        "Satellite Number": 793,
        "Semi-Major Axis(m)": 7083131.272910544,
        "Time(s)": 90
    },
    {
        "Altitude(m)": 702734.5458639506,
        "Argument of Periapsis(deg)": 0.00545526856833191,
        "Eccentricity": 0.0,
        "Inclination(deg)": 45.0,
        "Latitude(deg)": 15.317886635840516,
        "Longitude(deg)": 95.45430368689557,
        "Mean Anomaly(deg)": 21.887403762740824,
        "RAAN(deg)": 179.99485038593318,
        "Satellite Name": "Constellation 1 793",
        "Satellite Number": 793,
        "Semi-Major Axis(m)": 7083131.272910544,
        "Time(s)": 91
    },
    {
        "Altitude(m)": 702736.0678981356,
        "Argument of Periapsis(deg)": 0.005515216574577317,
        "Eccentricity": 0.0,
        "Inclination(deg)": 45.0,
        "Latitude(deg)": 15.359449958462715,
        "Longitude(deg)": 95.49627192305121,
        "Mean Anomaly(deg)": 21.948104902990714,
        "RAAN(deg)": 179.9947937967676,
        "Satellite Name": "Constellation 1 793",
        "Satellite Number": 793,
        "Semi-Major Axis(m)": 7083131.272910544,
        "Time(s)": 92
    },
    {
        "Altitude(m)": 702737.6070585366,
        "Argument of Periapsis(deg)": 0.005575164580822722,
        "Eccentricity": 0.0,
        "Inclination(deg)": 45.0,
        "Latitude(deg)": 15.401003630101506,
        "Longitude(deg)": 95.53825842794176,
        "Mean Anomaly(deg)": 22.008806043240625,
        "RAAN(deg)": 179.99473720760201,
        "Satellite Name": "Constellation 1 793",
        "Satellite Number": 793,
        "Semi-Major Axis(m)": 7083131.272910544,
        "Time(s)": 93
    },
    {
        "Altitude(m)": 702739.1633205377,
        "Argument of Periapsis(deg)": 0.005635112587068129,
        "Eccentricity": 0.0,
        "Inclination(deg)": 45.0,
        "Latitude(deg)": 15.442547619548895,
        "Longitude(deg)": 95.58026325632072,
        "Mean Anomaly(deg)": 22.06950718349051,
        "RAAN(deg)": 179.99468061843646,
        "Satellite Name": "Constellation 1 793",
        "Satellite Number": 793,
        "Semi-Major Axis(m)": 7083131.272910544,
        "Time(s)": 94
    }
]